{
  "type": "FeatureCollection",
  "features": [
    {
      "type": "Feature",
      "properties": {
        "norad_id": 59600,
        "name": "GSAT0227 (GALILEO 30)",
        "group": "galileo",
        "lat": -49.15730548310246,
        "lon": 52.0662880087096,
        "alt_km": 23236.395986108142,
        "timestamp": "2025-12-18T19:29:52.807514+00:00",
        "meta_object_name": "GSAT0227 (GALILEO 30)",
        "meta_object_id": "2024-079C",
        "meta_epoch": "2025-12-17T17:58:49.656576",
        "meta_mean_motion": 1.70474875,
        "meta_eccentricity": 0.00029873,
        "meta_inclination": 54.9997,
        "meta_ra_of_asc_node": 106.1542,
        "meta_arg_of_pericenter": 116.3364,
        "meta_mean_anomaly": 243.6531,
        "meta_ephemeris_type": 0,
        "meta_classification_type": "U",
        "meta_norad_cat_id": 59600,
        "meta_element_set_no": 999,
        "meta_rev_at_epoch": 1027,
        "meta_bstar": 0,
        "meta_mean_motion_dot": -9e-08,
        "meta_mean_motion_ddot": 0,
        "tle_line1": "1 59600U 24079C   25351.74918584 -.00000009  00000+0  00000+0 0  9992",
        "tle_line2": "2 59600  54.9997 106.1542 0002987 116.3364 243.6531  1.70474875 10271"
      },
      "geometry": {
        "type": "Point",
        "coordinates": [
          52.0662880087096,
          -49.15730548310246
        ]
      }
    },
    {
      "type": "Feature",
      "properties": {
        "norad_id": 61182,
        "name": "GSAT0232 (GALILEO 32)",
        "group": "galileo",
        "lat": 41.04248824998433,
        "lon": 9.109467137580998,
        "alt_km": 23216.550749275822,
        "timestamp": "2025-12-18T19:29:52.807526+00:00",
        "meta_object_name": "GSAT0232 (GALILEO 32)",
        "meta_object_id": "2024-167A",
        "meta_epoch": "2025-12-18T07:28:16.745952",
        "meta_mean_motion": 1.70473695,
        "meta_eccentricity": 0.00018931,
        "meta_inclination": 55.2391,
        "meta_ra_of_asc_node": 226.278,
        "meta_arg_of_pericenter": 209.6785,
        "meta_mean_anomaly": 329.812,
        "meta_ephemeris_type": 0,
        "meta_classification_type": "U",
        "meta_norad_cat_id": 61182,
        "meta_element_set_no": 999,
        "meta_rev_at_epoch": 779,
        "meta_bstar": 0,
        "meta_mean_motion_dot": 6.2e-07,
        "meta_mean_motion_ddot": 0,
        "tle_line1": "1 61182U 24167A   25352.31130493  .00000062  00000+0  00000+0 0  9995",
        "tle_line2": "2 61182  55.2391 226.2780 0001893 209.6785 329.8120  1.70473695  7790"
      },
      "geometry": {
        "type": "Point",
        "coordinates": [
          9.109467137580998,
          41.04248824998433
        ]
      }
    },
    {
      "type": "Feature",
      "properties": {
        "norad_id": 61183,
        "name": "GSAT0226 (GALILEO 31)",
        "group": "galileo",
        "lat": -45.13875616242823,
        "lon": 90.4975088834987,
        "alt_km": 23229.29815313929,
        "timestamp": "2025-12-18T19:29:52.807537+00:00",
        "meta_object_name": "GSAT0226 (GALILEO 31)",
        "meta_object_id": "2024-167B",
        "meta_epoch": "2025-12-17T12:20:03.342912",
        "meta_mean_motion": 1.70473772,
        "meta_eccentricity": 9.56e-05,
        "meta_inclination": 55.2379,
        "meta_ra_of_asc_node": 226.3053,
        "meta_arg_of_pericenter": 107.5101,
        "meta_mean_anomaly": 55.2715,
        "meta_ephemeris_type": 0,
        "meta_classification_type": "U",
        "meta_norad_cat_id": 61183,
        "meta_element_set_no": 999,
        "meta_rev_at_epoch": 775,
        "meta_bstar": 0,
        "meta_mean_motion_dot": 5.7e-07,
        "meta_mean_motion_ddot": 0,
        "tle_line1": "1 61183U 24167B   25351.51392758  .00000057  00000+0  00000+0 0  9995",
        "tle_line2": "2 61183  55.2379 226.3053 0000956 107.5101  55.2715  1.70473772  7750"
      },
      "geometry": {
        "type": "Point",
        "coordinates": [
          90.4975088834987,
          -45.13875616242823
        ]
      }
    },
    {
      "type": "Feature",
      "properties": {
        "norad_id": 67160,
        "name": "GALILEO A",
        "group": "galileo",
        "lat": 41.4926200824694,
        "lon": 146.76096261992544,
        "alt_km": 22962.937690148672,
        "timestamp": "2025-12-18T19:29:52.807548+00:00",
        "meta_object_name": "GALILEO A",
        "meta_object_id": "2025-302A",
        "meta_epoch": "2025-12-18T03:30:19.807776",
        "meta_mean_motion": 1.72901431,
        "meta_eccentricity": 0.00080329,
        "meta_inclination": 54.2385,
        "meta_ra_of_asc_node": 107.247,
        "meta_arg_of_pericenter": 237.4965,
        "meta_mean_anomaly": 122.3848,
        "meta_ephemeris_type": 0,
        "meta_classification_type": "U",
        "meta_norad_cat_id": 67160,
        "meta_element_set_no": 999,
        "meta_rev_at_epoch": 2,
        "meta_bstar": 0,
        "meta_mean_motion_dot": -7e-08,
        "meta_mean_motion_ddot": 0,
        "tle_line1": "1 67160U 25302A   25352.14606259 -.00000007  00000+0  00000+0 0  9998",
        "tle_line2": "2 67160  54.2385 107.2470 0008032 237.4965 122.3848  1.72901431    27"
      },
      "geometry": {
        "type": "Point",
        "coordinates": [
          146.76096261992544,
          41.4926200824694
        ]
      }
    },
    {
      "type": "Feature",
      "properties": {
        "norad_id": 67161,
        "name": "GALILEO B",
        "group": "galileo",
        "lat": 41.709538617597325,
        "lon": 147.1188040824567,
        "alt_km": 22946.021493812816,
        "timestamp": "2025-12-18T19:29:52.807559+00:00",
        "meta_object_name": "GALILEO B",
        "meta_object_id": "2025-302B",
        "meta_epoch": "2025-12-17T13:37:26.172192",
        "meta_mean_motion": 1.72965674,
        "meta_eccentricity": 0.00048649,
        "meta_inclination": 54.2314,
        "meta_ra_of_asc_node": 107.2469,
        "meta_arg_of_pericenter": 248.2865,
        "meta_mean_anomaly": 111.6205,
        "meta_ephemeris_type": 0,
        "meta_classification_type": "U",
        "meta_norad_cat_id": 67161,
        "meta_element_set_no": 999,
        "meta_rev_at_epoch": 2,
        "meta_bstar": 0,
        "meta_mean_motion_dot": -8e-08,
        "meta_mean_motion_ddot": 0,
        "tle_line1": "1 67161U 25302B   25351.56766403 -.00000008  00000+0  00000+0 0  9993",
        "tle_line2": "2 67161  54.2314 107.2469 0004864 248.2865 111.6205  1.72965674    23"
      },
      "geometry": {
        "type": "Point",
        "coordinates": [
          147.1188040824567,
          41.709538617597325
        ]
      }
    }
  ]
}